#aV2019  3 23  0  0  0.00000000     288 DD+AD WGS84 FIT  NGA
## 2045 518400.00000000   300.00000000 58565 0.0000000000000
+   31     1  2  3  5  6  7  8  9 10 11 12 13 14 15 16 17 18
+         19 20 21 22 23 24 25 26 27 28 29 30 31 32  0  0  0
+          0  0  0  0  0  0  0  0  0  0  0  0  0  0  0  0  0
+          0  0  0  0  0  0  0  0  0  0  0  0  0  0  0  0  0
+          0  0  0  0  0  0  0  0  0  0  0  0  0  0  0  0  0
++         2  2  2  2  2  2  2  2  2  2  2  2  2  2  2  2  2
++         2  2  2  2  2  2  2  2  2  2  2  2  2  2  0  0  0
++         0  0  0  0  0  0  0  0  0  0  0  0  0  0  0  0  0
++         0  0  0  0  0  0  0  0  0  0  0  0  0  0  0  0  0
++         0  0  0  0  0  0  0  0  0  0  0  0  0  0  0  0  0
%c cc cc ccc ccc cccc cccc cccc cccc ccccc ccccc ccccc ccccc
%c cc cc ccc ccc cccc cccc cccc cccc ccccc ccccc ccccc ccccc
%f  0.0000000  0.000000000  0.00000000000  0.000000000000000
%f  0.0000000  0.000000000  0.00000000000  0.000000000000000
%i    0    0    0    0      0      0      0      0         0
%i    0    0    0    0      0      0      0      0         0
/*      NGA, ST. LOUIS,MO.                                  
/*   EPHEMERIS COMPUTED FROM 2 DAYS OF DATA                 
/*   EPOCHA v3 SMOOTHER                                     
/*   G1762 IERS2010 SATAF SATAPC                            
*  2019  3 23 21 20  0.00000000
P  1  13891.789892 -21671.579776   5644.892309   -186.767180                    
V  1   -671.822650   7854.676808  31176.367559     -0.077053                    
P  2 -16241.773906   2582.100091 -20217.241955   -171.022591                    
V  2   8317.595186 -25832.157271  -9860.560915     -0.095930                    
P  3  17683.359733 -12601.292752 -15275.085829    187.135963                    
V  3  19468.493455    -68.000211  22720.537581      0.008599                    
P  5 -26515.291915   1888.995652  -2301.573134      1.184262                    
V  5   2347.914062  -3324.390803 -31188.659076      0.000060                    
P  6 -11226.315114 -10746.118487 -21485.527655    248.197767                    
V  6  11427.066686 -24865.261594   6482.263668     -0.089916                    
P  7   5130.078070 -24637.655695   7952.038477      9.191726                    
V  7   6952.149604  -7702.071315 -29719.438649     -0.073719                    
P  8  14370.984523  -5595.692706  21686.677139   -137.258839                    
V  8  16237.696630  22051.498731  -4882.874493     -0.013798                    
P  9  -4696.604946 -22326.874823 -13633.608665    440.584445                    
V  9  12289.572957  12352.086917 -24550.801756     -0.059920                    
P 10  14145.113169  11888.355228  19209.256562     90.400435                    
V 10 -23917.329092   3861.718218  15077.451196     -0.088874                    
P 11  10152.633522 -20126.974495  13695.355665   -639.794053                    
V 11   3807.641584  18240.339200  22855.617924      0.067832                    
P 12 -19266.482034  10713.804279 -14889.717226    257.581412                    
V 12 -18616.669536   -847.463056  23991.112304     -0.032888                    
P 13 -17457.202118  -3637.539706  19582.440664    -70.599108                    
V 13 -11237.142454 -22449.952251 -14066.695007      0.014404                    
P 14  17976.309939  17470.118090  -8741.421634    -87.239048                    
V 14   3906.653850  11082.012033  28966.775316      0.014259                    
P 15 -13301.506881   8713.754237  21036.323226   -322.072090                    
V 15 -18050.735172 -20643.967969  -2437.512281      0.019020                    
P 16  26799.714304   -253.674751   -513.072198    -27.480220                    
V 16   -382.808958   1721.105015 -31954.285028     -0.027091                    
P 17 -14511.329884 -22301.661618     84.388341     27.948005                    
V 17   1462.027688  -1418.271169  32208.610146      0.058253                    
P 18  16342.162078 -15228.553986  13780.983474     37.582710                    
V 18  -4181.702194  18093.273844  24250.809506      0.035485                    
P 19 -17619.363821 -17634.720602  -9320.935459   -338.932776                    
V 19  -4116.102486 -10828.286220  29286.413557      0.043190                    
P 20   4057.685252  15302.098103  21221.823931    523.364509                    
V 20 -26617.148051   6148.331439    510.062642      0.003489                    
P 21     23.017190  24227.468297  11840.003165   -226.694989                    
V 21  -7107.836591  12068.873450 -26378.947461      0.074685                    
P 22  23041.247762 -10244.741314  -8001.156568   -670.060467                    
V 22  11037.912533   1774.582390  28723.153697     -0.073935                    
P 23   5823.490474 -16116.183915 -19866.190654   -192.936749                    
V 23  16977.279206  19892.551274 -11388.444915      0.014160                    
P 24 -14896.286768  19563.640621   9453.849808    -63.778826                    
V 24   1204.632941 -12777.940573  28213.265662     -0.005184                    
P 25  -7143.282510  15069.424353 -20818.054575   -736.876483                    
V 25 -25951.272953   1815.564004  10574.369379     -0.048141                    
P 26  23880.529498   4644.009059 -10882.934026    157.084824                    
V 26 -13295.376004   4327.505831 -27194.185369      0.100494                    
P 27  19025.095793   5823.984634  17646.269123    -92.492321                    
V 27  12338.707863  18781.516419 -19105.321056     -0.081639                    
P 28 -11751.639454 -13334.236466  20316.560579    766.716306                    
V 28  24414.500399  -1256.403960  13803.913359      0.005595                    
P 29   -921.914402  20035.602763 -17440.526222    242.458625                    
V 29 -12897.180631 -17907.071240 -19920.057359     -0.088173                    
P 30  -3605.021589 -20225.237897  16750.341839    -73.679024                    
V 30  11499.755942 -18154.350590 -19641.788208     -0.066895                    
P 31  12238.542298   9405.835172 -21572.646934     50.086964                    
V 31 -12295.899688  24545.447735   4163.123088     -0.026651                    
P 32  17376.026098  19955.394224  -2889.240590   -166.754866                    
V 32    -40.902550   4661.926653  31322.151142      0.183125                    
EOF
